{"type": "FeatureCollection", "features": [ {"type": "Feature", "properties": {"norad_id": 62339, "name": "GPS BIII-7  (PRN 01)", "group": "gps-ops", "lat": -42.052488414781585, "lon": -158.8739634395441, "alt_km": 20197.012124940462, "timestamp": "2025-12-11T05:00:26.567889+00:00", "meta": {"OBJECT_NAME": "GPS BIII-7  (PRN 01)", "OBJECT_ID": "2024-242A", "EPOCH": "2025-12-07T21:14:38.700960", "MEAN_MOTION": 2.00567469, "ECCENTRICITY": 0.00119344, "INCLINATION": 54.9247, "RA_OF_ASC_NODE": 341.9365, "ARG_OF_PERICENTER": 343.8064, "MEAN_ANOMALY": 11.4848, "EPHEMERIS_TYPE": 0, "CLASSIFICATION_TYPE": "U", "NORAD_CAT_ID": 62339, "ELEMENT_SET_NO": 999, "REV_AT_EPOCH": 741, "BSTAR": 0, "MEAN_MOTION_DOT": -8.7e-07, "MEAN_MOTION_DDOT": 0}, "tle": {"line1": "1 62339U 24242A   25341.88517015 -.00000087  00000+0  00000+0 0  9991", "line2": "2 62339  54.9247 341.9365 0011934 343.8064  11.4848  2.00567469  7410"}}, "geometry": {"type": "Point", "coordinates": [-158.8739634395441, -42.052488414781585]}}, {"type": "Feature", "properties": {"norad_id": 64202, "name": "GPS BIII-8  (PRN 21)", "group": "gps-ops", "lat": 47.8185588706416, "lon": 89.03414931086456, "alt_km": 20183.355738748844, "timestamp": "2025-12-11T05:00:26.567904+00:00", "meta": {"OBJECT_NAME": "GPS BIII-8  (PRN 21)", "OBJECT_ID": "2025-116A", "EPOCH": "2025-12-10T14:44:58.925760", "MEAN_MOTION": 2.0055838, "ECCENTRICITY": 0.0005302, "INCLINATION": 55.1043, "RA_OF_ASC_NODE": 38.7264, "ARG_OF_PERICENTER": 307.5969, "MEAN_ANOMALY": 48.0567, "EPHEMERIS_TYPE": 0, "CLASSIFICATION_TYPE": "U", "NORAD_CAT_ID": 64202, "ELEMENT_SET_NO": 999, "REV_AT_EPOCH": 408, "BSTAR": 0, "MEAN_MOTION_DOT": -9.2e-07, "MEAN_MOTION_DDOT": 0}, "tle": {"line1": "1 64202U 25116A   25344.61457090 -.00000092  00000+0  00000+0 0  9999", "line2": "2 64202  55.1043  38.7264 0005302 307.5969  48.0567  2.00558380  4086"}}, "geometry": {"type": "Point", "coordinates": [89.03414931086456, 47.8185588706416]}}]}